[
  {
    "COMMENT": "GENERATED VIA SPACETRACK.ORG API",
    "ORIGINATOR": "18 SPCS",
    "NORAD_CAT_ID": "39086",
    "OBJECT_NAME": "SARAL",
    "OBJECT_TYPE": "PAYLOAD",
    "CLASSIFICATION_TYPE": "U",
    "INTLDES": "13009A",
    "EPOCH": "2023-04-08 03:59:51",
    "EPOCH_MICROSECONDS": "1728",
    "MEAN_MOTION": "14.321701",
    "ECCENTRICITY": "0.0002814",
    "INCLINATION": "98.548",
    "RA_OF_ASC_NODE": "284.4741",
    "ARG_OF_PERICENTER": "117.9855",
    "MEAN_ANOMALY": "242.1613",
    "EPHEMERIS_TYPE": "0",
    "ELEMENT_SET_NO": "999",
    "REV_AT_EPOCH": "52866",
    "BSTAR": "0.000084581",
    "MEAN_MOTION_DOT": "0.00000184",
    "MEAN_MOTION_DDOT": "0",
    "FILE": "3882955",
    "TLE_LINE0": "0 SARAL",
    "TLE_LINE1": "1 39086U 13009A   23098.16656252  .00000184  00000-0  84581-4 0  9997",
    "TLE_LINE2": "2 39086  98.5480 284.4741 0002814 117.9855 242.1613 14.32170100528668",
    "OBJECT_ID": "2013-009A",
    "OBJECT_NUMBER": "39086",
    "SEMIMAJOR_AXIS": "7162.623",
    "PERIOD": "100.547",
    "APOGEE": "786.504",
    "PERIGEE": "782.473",
    "DECAYED": "0"
  },
  {
    "COMMENT": "GENERATED VIA SPACETRACK.ORG API",
    "ORIGINATOR": "18 SPCS",
    "NORAD_CAT_ID": "39086",
    "OBJECT_NAME": "SARAL",
    "OBJECT_TYPE": "PAYLOAD",
    "CLASSIFICATION_TYPE": "U",
    "INTLDES": "13009A",
    "EPOCH": "2023-04-08 14:03:28",
    "EPOCH_MICROSECONDS": "557216",
    "MEAN_MOTION": "14.32170298",
    "ECCENTRICITY": "0.0002823",
    "INCLINATION": "98.5481",
    "RA_OF_ASC_NODE": "284.8872",
    "ARG_OF_PERICENTER": "117.2227",
    "MEAN_ANOMALY": "242.9245",
    "EPHEMERIS_TYPE": "0",
    "ELEMENT_SET_NO": "999",
    "REV_AT_EPOCH": "52872",
    "BSTAR": "0.000083673",
    "MEAN_MOTION_DOT": "0.00000182",
    "MEAN_MOTION_DDOT": "0",
    "FILE": "3883527",
    "TLE_LINE0": "0 SARAL",
    "TLE_LINE1": "1 39086U 13009A   23098.58574719  .00000182  00000-0  83673-4 0  9999",
    "TLE_LINE2": "2 39086  98.5481 284.8872 0002823 117.2227 242.9245 14.32170298528728",
    "OBJECT_ID": "2013-009A",
    "OBJECT_NUMBER": "39086",
    "SEMIMAJOR_AXIS": "7162.623",
    "PERIOD": "100.547",
    "APOGEE": "786.510",
    "PERIGEE": "782.466",
    "DECAYED": "0"
  },
  {
    "COMMENT": "GENERATED VIA SPACETRACK.ORG API",
    "ORIGINATOR": "18 SPCS",
    "NORAD_CAT_ID": "39086",
    "OBJECT_NAME": "SARAL",
    "OBJECT_TYPE": "PAYLOAD",
    "CLASSIFICATION_TYPE": "U",
    "INTLDES": "13009A",
    "EPOCH": "2023-04-09 11:51:19",
    "EPOCH_MICROSECONDS": "916928",
    "MEAN_MOTION": "14.32170648",
    "ECCENTRICITY": "0.0002846",
    "INCLINATION": "98.5481",
    "RA_OF_ASC_NODE": "285.7823",
    "ARG_OF_PERICENTER": "115.4947",
    "MEAN_ANOMALY": "244.6531",
    "EPHEMERIS_TYPE": "0",
    "ELEMENT_SET_NO": "999",
    "REV_AT_EPOCH": "52885",
    "BSTAR": "0.000077403",
    "MEAN_MOTION_DOT": "0.00000165",
    "MEAN_MOTION_DDOT": "0",
    "FILE": "3884121",
    "TLE_LINE0": "0 SARAL",
    "TLE_LINE1": "1 39086U 13009A   23099.49398052  .00000165  00000-0  77403-4 0  9999",
    "TLE_LINE2": "2 39086  98.5481 285.7823 0002846 115.4947 244.6531 14.32170648528858",
    "OBJECT_ID": "2013-009A",
    "OBJECT_NUMBER": "39086",
    "SEMIMAJOR_AXIS": "7162.621",
    "PERIOD": "100.547",
    "APOGEE": "786.525",
    "PERIGEE": "782.448",
    "DECAYED": "0"
  },
  {
    "COMMENT": "GENERATED VIA SPACETRACK.ORG API",
    "ORIGINATOR": "18 SPCS",
    "NORAD_CAT_ID": "39086",
    "OBJECT_NAME": "SARAL",
    "OBJECT_TYPE": "PAYLOAD",
    "CLASSIFICATION_TYPE": "U",
    "INTLDES": "13009A",
    "EPOCH": "2023-04-09 21:54:57",
    "EPOCH_MICROSECONDS": "462048",
    "MEAN_MOTION": "14.32170892",
    "ECCENTRICITY": "0.0002859",
    "INCLINATION": "98.5482",
    "RA_OF_ASC_NODE": "286.1954",
    "ARG_OF_PERICENTER": "114.6589",
    "MEAN_ANOMALY": "245.4892",
    "EPHEMERIS_TYPE": "0",
    "ELEMENT_SET_NO": "999",
    "REV_AT_EPOCH": "52891",
    "BSTAR": "0.00008062",
    "MEAN_MOTION_DOT": "0.00000173",
    "MEAN_MOTION_DDOT": "0",
    "FILE": "3884641",
    "TLE_LINE0": "0 SARAL",
    "TLE_LINE1": "1 39086U 13009A   23099.91316507  .00000173  00000-0  80620-4 0  9995",
    "TLE_LINE2": "2 39086  98.5482 286.1954 0002859 114.6589 245.4892 14.32170892528913",
    "OBJECT_ID": "2013-009A",
    "OBJECT_NUMBER": "39086",
    "SEMIMAJOR_AXIS": "7162.621",
    "PERIOD": "100.547",
    "APOGEE": "786.533",
    "PERIGEE": "782.438",
    "DECAYED": "0"
  },
  {
    "COMMENT": "GENERATED VIA SPACETRACK.ORG API",
    "ORIGINATOR": "18 SPCS",
    "NORAD_CAT_ID": "39086",
    "OBJECT_NAME": "SARAL",
    "OBJECT_TYPE": "PAYLOAD",
    "CLASSIFICATION_TYPE": "U",
    "INTLDES": "13009A",
    "EPOCH": "2023-04-10 13:00:23",
    "EPOCH_MICROSECONDS": "756832",
    "MEAN_MOTION": "14.32171313",
    "ECCENTRICITY": "0.0002871",
    "INCLINATION": "98.5481",
    "RA_OF_ASC_NODE": "286.8151",
    "ARG_OF_PERICENTER": "113.5301",
    "MEAN_ANOMALY": "246.6185",
    "EPHEMERIS_TYPE": "0",
    "ELEMENT_SET_NO": "999",
    "REV_AT_EPOCH": "52900",
    "BSTAR": "0.000089242",
    "MEAN_MOTION_DOT": "0.00000197",
    "MEAN_MOTION_DDOT": "0",
    "FILE": "3885195",
    "TLE_LINE0": "0 SARAL",
    "TLE_LINE1": "1 39086U 13009A   23100.54194163  .00000197  00000-0  89242-4 0  9994",
    "TLE_LINE2": "2 39086  98.5481 286.8151 0002871 113.5301 246.6185 14.32171313529000",
    "OBJECT_ID": "2013-009A",
    "OBJECT_NUMBER": "39086",
    "SEMIMAJOR_AXIS": "7162.619",
    "PERIOD": "100.547",
    "APOGEE": "786.541",
    "PERIGEE": "782.428",
    "DECAYED": "0"
  },
  {
    "COMMENT": "GENERATED VIA SPACETRACK.ORG API",
    "ORIGINATOR": "18 SPCS",
    "NORAD_CAT_ID": "39086",
    "OBJECT_NAME": "SARAL",
    "OBJECT_TYPE": "PAYLOAD",
    "CLASSIFICATION_TYPE": "U",
    "INTLDES": "13009A",
    "EPOCH": "2023-04-10 21:23:25",
    "EPOCH_MICROSECONDS": "32480",
    "MEAN_MOTION": "14.32171419",
    "ECCENTRICITY": "0.0002881",
    "INCLINATION": "98.5482",
    "RA_OF_ASC_NODE": "287.1594",
    "ARG_OF_PERICENTER": "112.8668",
    "MEAN_ANOMALY": "247.282",
    "EPHEMERIS_TYPE": "0",
    "ELEMENT_SET_NO": "999",
    "REV_AT_EPOCH": "52905",
    "BSTAR": "0.000084797",
    "MEAN_MOTION_DOT": "0.00000185",
    "MEAN_MOTION_DDOT": "0",
    "FILE": "3885363",
    "TLE_LINE0": "0 SARAL",
    "TLE_LINE1": "1 39086U 13009A   23100.89126195  .00000185  00000-0  84797-4 0  9999",
    "TLE_LINE2": "2 39086  98.5482 287.1594 0002881 112.8668 247.2820 14.32171419529050",
    "OBJECT_ID": "2013-009A",
    "OBJECT_NUMBER": "39086",
    "SEMIMAJOR_AXIS": "7162.619",
    "PERIOD": "100.547",
    "APOGEE": "786.547",
    "PERIGEE": "782.420",
    "DECAYED": "0"
  },
  {
    "COMMENT": "GENERATED VIA SPACETRACK.ORG API",
    "ORIGINATOR": "18 SPCS",
    "NORAD_CAT_ID": "39086",
    "OBJECT_NAME": "SARAL",
    "OBJECT_TYPE": "PAYLOAD",
    "CLASSIFICATION_TYPE": "U",
    "INTLDES": "13009A",
    "EPOCH": "2023-04-11 14:09:27",
    "EPOCH_MICROSECONDS": "566496",
    "MEAN_MOTION": "14.32171832",
    "ECCENTRICITY": "0.0002888",
    "INCLINATION": "98.5482",
    "RA_OF_ASC_NODE": "287.8479",
    "ARG_OF_PERICENTER": "111.5576",
    "MEAN_ANOMALY": "248.5916",
    "EPHEMERIS_TYPE": "0",
    "ELEMENT_SET_NO": "999",
    "REV_AT_EPOCH": "52915",
    "BSTAR": "0.000092044",
    "MEAN_MOTION_DOT": "0.00000204",
    "MEAN_MOTION_DDOT": "0",
    "FILE": "3885783",
    "TLE_LINE0": "0 SARAL",
    "TLE_LINE1": "1 39086U 13009A   23101.58990239  .00000204  00000-0  92044-4 0  9990",
    "TLE_LINE2": "2 39086  98.5482 287.8479 0002888 111.5576 248.5916 14.32171832529150",
    "OBJECT_ID": "2013-009A",
    "OBJECT_NUMBER": "39086",
    "SEMIMAJOR_AXIS": "7162.617",
    "PERIOD": "100.547",
    "APOGEE": "786.551",
    "PERIGEE": "782.414",
    "DECAYED": "0"
  },
  {
    "COMMENT": "GENERATED VIA SPACETRACK.ORG API",
    "ORIGINATOR": "18 SPCS",
    "NORAD_CAT_ID": "39086",
    "OBJECT_NAME": "SARAL",
    "OBJECT_TYPE": "PAYLOAD",
    "CLASSIFICATION_TYPE": "U",
    "INTLDES": "13009A",
    "EPOCH": "2023-04-11 20:51:52",
    "EPOCH_MICROSECONDS": "579584",
    "MEAN_MOTION": "14.32171908",
    "ECCENTRICITY": "0.0002895",
    "INCLINATION": "98.5483",
    "RA_OF_ASC_NODE": "288.1233",
    "ARG_OF_PERICENTER": "110.9629",
    "MEAN_ANOMALY": "249.1864",
    "EPHEMERIS_TYPE": "0",
    "ELEMENT_SET_NO": "999",
    "REV_AT_EPOCH": "52919",
    "BSTAR": "0.000087175",
    "MEAN_MOTION_DOT": "0.00000191",
    "MEAN_MOTION_DDOT": "0",
    "FILE": "3885919",
    "TLE_LINE0": "0 SARAL",
    "TLE_LINE1": "1 39086U 13009A   23101.86935856  .00000191  00000-0  87175-4 0  9999",
    "TLE_LINE2": "2 39086  98.5483 288.1233 0002895 110.9629 249.1864 14.32171908529190",
    "OBJECT_ID": "2013-009A",
    "OBJECT_NUMBER": "39086",
    "SEMIMAJOR_AXIS": "7162.617",
    "PERIOD": "100.547",
    "APOGEE": "786.556",
    "PERIGEE": "782.409",
    "DECAYED": "0"
  },
  {
    "COMMENT": "GENERATED VIA SPACETRACK.ORG API",
    "ORIGINATOR": "18 SPCS",
    "NORAD_CAT_ID": "39086",
    "OBJECT_NAME": "SARAL",
    "OBJECT_TYPE": "PAYLOAD",
    "CLASSIFICATION_TYPE": "U",
    "INTLDES": "13009A",
    "EPOCH": "2023-04-12 13:37:55",
    "EPOCH_MICROSECONDS": "97184",
    "MEAN_MOTION": "14.3217221",
    "ECCENTRICITY": "0.0002907",
    "INCLINATION": "98.5483",
    "RA_OF_ASC_NODE": "288.8118",
    "ARG_OF_PERICENTER": "109.7095",
    "MEAN_ANOMALY": "250.4403",
    "EPHEMERIS_TYPE": "0",
    "ELEMENT_SET_NO": "999",
    "REV_AT_EPOCH": "52929",
    "BSTAR": "0.000087593",
    "MEAN_MOTION_DOT": "0.00000192",
    "MEAN_MOTION_DDOT": "0",
    "FILE": "3886349",
    "TLE_LINE0": "0 SARAL",
    "TLE_LINE1": "1 39086U 13009A   23102.56799881  .00000192  00000-0  87593-4 0  9998",
    "TLE_LINE2": "2 39086  98.5483 288.8118 0002907 109.7095 250.4403 14.32172210529298",
    "OBJECT_ID": "2013-009A",
    "OBJECT_NUMBER": "39086",
    "SEMIMAJOR_AXIS": "7162.616",
    "PERIOD": "100.547",
    "APOGEE": "786.563",
    "PERIGEE": "782.399",
    "DECAYED": "0"
  }
]